CCSDS_OMM_VERS = 2.0
CREATION_DATE  = 
ORIGINATOR     = 

OBJECT_NAME    = STARLINK-35991
OBJECT_ID      = 2025-281P
CENTER_NAME    = EARTH
REF_FRAME      = TEME
TIME_SYSTEM    = UTC
MEAN_ELEMENT_THEORY = SGP/SGP4

EPOCH          = 2025-12-12T04:00:01.998720
MEAN_MOTION    = 15.92753157
ECCENTRICITY   = .0001711
INCLINATION    = 43.0018
RA_OF_ASC_NODE = 125.8726
ARG_OF_PERICENTER = 274.9760
MEAN_ANOMALY   = 219.9499

EPHEMERIS_TYPE = 0
CLASSIFICATION_TYPE = U
NORAD_CAT_ID   = 66861
ELEMENT_SET_NO = 999
REV_AT_EPOCH   = 131
BSTAR          = -.34404E-2
MEAN_MOTION_DOT = -.122985E-1
MEAN_MOTION_DDOT = .44428E-3

CCSDS_OMM_VERS = 2.0
CREATION_DATE  = 
ORIGINATOR     = 

OBJECT_NAME    = STARLINK-35974
OBJECT_ID      = 2025-281Q
CENTER_NAME    = EARTH
REF_FRAME      = TEME
TIME_SYSTEM    = UTC
MEAN_ELEMENT_THEORY = SGP/SGP4

EPOCH          = 2025-12-12T04:00:01.998720
MEAN_MOTION    = 15.92700562
ECCENTRICITY   = .000177
INCLINATION    = 43.0016
RA_OF_ASC_NODE = 125.8790
ARG_OF_PERICENTER = 271.2735
MEAN_ANOMALY   = 221.0836

EPHEMERIS_TYPE = 0
CLASSIFICATION_TYPE = U
NORAD_CAT_ID   = 66862
ELEMENT_SET_NO = 999
REV_AT_EPOCH   = 130
BSTAR          = -.34723E-2
MEAN_MOTION_DOT = -.1237753E-1
MEAN_MOTION_DDOT = .44929E-3

CCSDS_OMM_VERS = 2.0
CREATION_DATE  = 
ORIGINATOR     = 

OBJECT_NAME    = STARLINK-36134
OBJECT_ID      = 2025-281R
CENTER_NAME    = EARTH
REF_FRAME      = TEME
TIME_SYSTEM    = UTC
MEAN_ELEMENT_THEORY = SGP/SGP4

EPOCH          = 2025-12-12T04:00:01.998720
MEAN_MOTION    = 15.92827750
ECCENTRICITY   = .0001641
INCLINATION    = 43.0024
RA_OF_ASC_NODE = 125.8636
ARG_OF_PERICENTER = 273.8931
MEAN_ANOMALY   = 224.4024

EPHEMERIS_TYPE = 0
CLASSIFICATION_TYPE = U
NORAD_CAT_ID   = 66863
ELEMENT_SET_NO = 999
REV_AT_EPOCH   = 131
BSTAR          = -.34731E-2
MEAN_MOTION_DOT = -.1246209E-1
MEAN_MOTION_DDOT = .45548E-3

CCSDS_OMM_VERS = 2.0
CREATION_DATE  = 
ORIGINATOR     = 

OBJECT_NAME    = STARLINK-36070
OBJECT_ID      = 2025-281S
CENTER_NAME    = EARTH
REF_FRAME      = TEME
TIME_SYSTEM    = UTC
MEAN_ELEMENT_THEORY = SGP/SGP4

EPOCH          = 2025-12-12T04:00:01.998720
MEAN_MOTION    = 15.92887761
ECCENTRICITY   = .0001688
INCLINATION    = 43.0021
RA_OF_ASC_NODE = 125.8577
ARG_OF_PERICENTER = 275.6058
MEAN_ANOMALY   = 225.0789

EPHEMERIS_TYPE = 0
CLASSIFICATION_TYPE = U
NORAD_CAT_ID   = 66864
ELEMENT_SET_NO = 999
REV_AT_EPOCH   = 134
BSTAR          = -.34861E-2
MEAN_MOTION_DOT = -.1254748E-1
MEAN_MOTION_DDOT = .46148E-3

CCSDS_OMM_VERS = 2.0
CREATION_DATE  = 
ORIGINATOR     = 

OBJECT_NAME    = STARLINK-36117
OBJECT_ID      = 2025-281T
CENTER_NAME    = EARTH
REF_FRAME      = TEME
TIME_SYSTEM    = UTC
MEAN_ELEMENT_THEORY = SGP/SGP4

EPOCH          = 2025-12-12T04:00:01.998720
MEAN_MOTION    = 15.93010933
ECCENTRICITY   = .0001731
INCLINATION    = 43.0019
RA_OF_ASC_NODE = 125.8446
ARG_OF_PERICENTER = 269.8269
MEAN_ANOMALY   = 236.1389

EPHEMERIS_TYPE = 0
CLASSIFICATION_TYPE = U
NORAD_CAT_ID   = 66865
ELEMENT_SET_NO = 999
REV_AT_EPOCH   = 131
BSTAR          = -.34831E-2
MEAN_MOTION_DOT = -.1261757E-1
MEAN_MOTION_DDOT = .46677E-3

CCSDS_OMM_VERS = 2.0
CREATION_DATE  = 
ORIGINATOR     = 

OBJECT_NAME    = STARLINK-36126
OBJECT_ID      = 2025-281U
CENTER_NAME    = EARTH
REF_FRAME      = TEME
TIME_SYSTEM    = UTC
MEAN_ELEMENT_THEORY = SGP/SGP4

EPOCH          = 2025-12-12T04:00:01.998720
MEAN_MOTION    = 15.93077255
ECCENTRICITY   = .0001596
INCLINATION    = 43.0018
RA_OF_ASC_NODE = 125.8392
ARG_OF_PERICENTER = 273.1160
MEAN_ANOMALY   = 235.0741

EPHEMERIS_TYPE = 0
CLASSIFICATION_TYPE = U
NORAD_CAT_ID   = 66866
ELEMENT_SET_NO = 999
REV_AT_EPOCH   = 134
BSTAR          = -.35437E-2
MEAN_MOTION_DOT = -.1287886E-1
MEAN_MOTION_DDOT = .48492E-3

CCSDS_OMM_VERS = 2.0
CREATION_DATE  = 
ORIGINATOR     = 

OBJECT_NAME    = STARLINK-36101
OBJECT_ID      = 2025-281V
CENTER_NAME    = EARTH
REF_FRAME      = TEME
TIME_SYSTEM    = UTC
MEAN_ELEMENT_THEORY = SGP/SGP4

EPOCH          = 2025-12-12T04:00:01.998720
MEAN_MOTION    = 15.93155105
ECCENTRICITY   = .0001467
INCLINATION    = 43.0020
RA_OF_ASC_NODE = 125.8313
ARG_OF_PERICENTER = 274.5114
MEAN_ANOMALY   = 236.6590

EPHEMERIS_TYPE = 0
CLASSIFICATION_TYPE = U
NORAD_CAT_ID   = 66867
ELEMENT_SET_NO = 999
REV_AT_EPOCH   = 130
BSTAR          = -.36161E-2
MEAN_MOTION_DOT = -.1319243E-1
MEAN_MOTION_DDOT = .50713E-3

CCSDS_OMM_VERS = 2.0
CREATION_DATE  = 
ORIGINATOR     = 

OBJECT_NAME    = STARLINK-36108
OBJECT_ID      = 2025-281W
CENTER_NAME    = EARTH
REF_FRAME      = TEME
TIME_SYSTEM    = UTC
MEAN_ELEMENT_THEORY = SGP/SGP4

EPOCH          = 2025-12-12T04:00:01.998720
MEAN_MOTION    = 15.93252936
ECCENTRICITY   = .0001631
INCLINATION    = 43.0020
RA_OF_ASC_NODE = 125.8233
ARG_OF_PERICENTER = 273.8335
MEAN_ANOMALY   = 240.5468

EPHEMERIS_TYPE = 0
CLASSIFICATION_TYPE = U
NORAD_CAT_ID   = 66868
ELEMENT_SET_NO = 999
REV_AT_EPOCH   = 130
BSTAR          = -.38256E-2
MEAN_MOTION_DOT = -.1401934E-1
MEAN_MOTION_DDOT = .56742E-3

CCSDS_OMM_VERS = 2.0
CREATION_DATE  = 
ORIGINATOR     = 

OBJECT_NAME    = STARLINK-36092
OBJECT_ID      = 2025-281X
CENTER_NAME    = EARTH
REF_FRAME      = TEME
TIME_SYSTEM    = UTC
MEAN_ELEMENT_THEORY = SGP/SGP4

EPOCH          = 2025-12-12T04:00:01.998720
MEAN_MOTION    = 15.93326353
ECCENTRICITY   = .0001809
INCLINATION    = 43.0020
RA_OF_ASC_NODE = 125.8168
ARG_OF_PERICENTER = 269.7651
MEAN_ANOMALY   = 247.1168

EPHEMERIS_TYPE = 0
CLASSIFICATION_TYPE = U
NORAD_CAT_ID   = 66869
ELEMENT_SET_NO = 999
REV_AT_EPOCH   = 134
BSTAR          = -.39775E-2
MEAN_MOTION_DOT = -.1462592E-1
MEAN_MOTION_DDOT = .6137E-3

CCSDS_OMM_VERS = 2.0
CREATION_DATE  = 
ORIGINATOR     = 

OBJECT_NAME    = STARLINK-36114
OBJECT_ID      = 2025-281Y
CENTER_NAME    = EARTH
REF_FRAME      = TEME
TIME_SYSTEM    = UTC
MEAN_ELEMENT_THEORY = SGP/SGP4

EPOCH          = 2025-12-11T18:20:53.549952
MEAN_MOTION    = 15.97988777
ECCENTRICITY   = .0001458
INCLINATION    = 43.0018
RA_OF_ASC_NODE = 128.3499
ARG_OF_PERICENTER = 296.4639
MEAN_ANOMALY   = 63.6089

EPHEMERIS_TYPE = 0
CLASSIFICATION_TYPE = U
NORAD_CAT_ID   = 66870
ELEMENT_SET_NO = 999
REV_AT_EPOCH   = 263
BSTAR          = .76121E-3
MEAN_MOTION_DOT = .359718E-2
MEAN_MOTION_DDOT = .60966E-4

CCSDS_OMM_VERS = 2.0
CREATION_DATE  = 
ORIGINATOR     = 

OBJECT_NAME    = STARLINK-36095
OBJECT_ID      = 2025-281Z
CENTER_NAME    = EARTH
REF_FRAME      = TEME
TIME_SYSTEM    = UTC
MEAN_ELEMENT_THEORY = SGP/SGP4

EPOCH          = 2025-12-12T04:00:01.998720
MEAN_MOTION    = 15.93445555
ECCENTRICITY   = .0001474
INCLINATION    = 43.0015
RA_OF_ASC_NODE = 125.7993
ARG_OF_PERICENTER = 270.9738
MEAN_ANOMALY   = 252.5341

EPHEMERIS_TYPE = 0
CLASSIFICATION_TYPE = U
NORAD_CAT_ID   = 66871
ELEMENT_SET_NO = 999
REV_AT_EPOCH   = 134
BSTAR          = -.41681E-2
MEAN_MOTION_DOT = -.15413E-1
MEAN_MOTION_DDOT = .6765E-3

CCSDS_OMM_VERS = 2.0
CREATION_DATE  = 
ORIGINATOR     = 

OBJECT_NAME    = STARLINK-36082
OBJECT_ID      = 2025-281AA
CENTER_NAME    = EARTH
REF_FRAME      = TEME
TIME_SYSTEM    = UTC
MEAN_ELEMENT_THEORY = SGP/SGP4

EPOCH          = 2025-12-11T18:19:35.020128
MEAN_MOTION    = 15.98118857
ECCENTRICITY   = .00012
INCLINATION    = 43.0008
RA_OF_ASC_NODE = 128.3422
ARG_OF_PERICENTER = 50.2228
MEAN_ANOMALY   = 309.8755

EPHEMERIS_TYPE = 0
CLASSIFICATION_TYPE = U
NORAD_CAT_ID   = 66872
ELEMENT_SET_NO = 999
REV_AT_EPOCH   = 263
BSTAR          = .81321E-3
MEAN_MOTION_DOT = .387239E-2
MEAN_MOTION_DDOT = .69719E-4

