STARLINK-35991          
1 66861U 25281P   25346.16668980 -.01229850  44428-3 -34404-2 0  9990
2 66861  43.0018 125.8726 0001711 274.9760 219.9499 15.92753157  1314
STARLINK-35974          
1 66862U 25281Q   25346.16668980 -.01237753  44929-3 -34723-2 0  9992
2 66862  43.0016 125.8790 0001770 271.2735 221.0836 15.92700562  1301
STARLINK-36134          
1 66863U 25281R   25346.16668980 -.01246209  45548-3 -34731-2 0  9996
2 66863  43.0024 125.8636 0001641 273.8931 224.4024 15.92827750  1319
STARLINK-36070          
1 66864U 25281S   25346.16668980 -.01254748  46148-3 -34861-2 0  9995
2 66864  43.0021 125.8577 0001688 275.6058 225.0789 15.92887761  1348
STARLINK-36117          
1 66865U 25281T   25346.16668980 -.01261757  46677-3 -34831-2 0  9998
2 66865  43.0019 125.8446 0001731 269.8269 236.1389 15.93010933  1315
STARLINK-36126          
1 66866U 25281U   25346.16668980 -.01287886  48492-3 -35437-2 0  9990
2 66866  43.0018 125.8392 0001596 273.1160 235.0741 15.93077255  1345
STARLINK-36101          
1 66867U 25281V   25346.16668980 -.01319243  50713-3 -36161-2 0  9998
2 66867  43.0020 125.8313 0001467 274.5114 236.6590 15.93155105  1309
STARLINK-36108          
1 66868U 25281W   25346.16668980 -.01401934  56742-3 -38256-2 0  9993
2 66868  43.0020 125.8233 0001631 273.8335 240.5468 15.93252936  1309
STARLINK-36092          
1 66869U 25281X   25346.16668980 -.01462592  61370-3 -39775-2 0  9991
2 66869  43.0020 125.8168 0001809 269.7651 247.1168 15.93326353  1348
STARLINK-36114          
1 66870U 25281Y   25345.76450868  .00359718  60966-4  76121-3 0  9992
2 66870  43.0018 128.3499 0001458 296.4639  63.6089 15.97988777  2639
STARLINK-36095          
1 66871U 25281Z   25346.16668980 -.01541300  67650-3 -41681-2 0  9995
2 66871  43.0015 125.7993 0001474 270.9738 252.5341 15.93445555  1347
STARLINK-36082          
1 66872U 25281AA  25345.76359977  .00387239  69719-4  81321-3 0  9995
2 66872  43.0008 128.3422 0001200  50.2228 309.8755 15.98118857  2631
